[{"OBJECT_NAME":"STARLINK-30494","OBJECT_ID":"2023-151G","EPOCH":"2026-03-09T08:39:06.366240","MEAN_MOTION":15.28417441,"ECCENTRICITY":0.00011553,"INCLINATION":43.0027,"RA_OF_ASC_NODE":192.4566,"ARG_OF_PERICENTER":241.5536,"MEAN_ANOMALY":118.52,"EPHEMERIS_TYPE":0,"CLASSIFICATION_TYPE":"U","NORAD_CAT_ID":57970,"ELEMENT_SET_NO":999,"REV_AT_EPOCH":13740,"BSTAR":-3.569111e-5,"MEAN_MOTION_DOT":-1.272e-5,"MEAN_MOTION_DDOT":0},{"OBJECT_NAME":"STARLINK-32672","OBJECT_ID":"2024-229D","EPOCH":"2026-03-09T23:01:13.117440","MEAN_MOTION":15.27591604,"ECCENTRICITY":0.00028318,"INCLINATION":43.0028,"RA_OF_ASC_NODE":269.1028,"ARG_OF_PERICENTER":248.7074,"MEAN_ANOMALY":111.3475,"EPHEMERIS_TYPE":0,"CLASSIFICATION_TYPE":"U","NORAD_CAT_ID":62195,"ELEMENT_SET_NO":999,"REV_AT_EPOCH":7060,"BSTAR":0.00057822556,"MEAN_MOTION_DOT":0.0001569,"MEAN_MOTION_DDOT":0}]
